start=new Date('2021-10-13T00:00:00.000Z').valueOf();
sats=[{"MEAN_ELEMENT_THEORY":"SGP4","RA_OF_ASC_NODE":"163.7865","MEAN_MOTION_DOT":"0.00001015","TLE_LINE1":"1 48584U 21041AH  21285.89057642  .00001015  00000-0  87078-4 0  9997","EPHEMERIS_TYPE":"0","EPOCH":"2021-10-12T21:22:25.802688","BSTAR":"0.00008707800000","TIME_SYSTEM":"UTC","ARG_OF_PERICENTER":"71.6354","CENTER_NAME":"EARTH","OBJECT_ID":"2021-041AH","INCLINATION":"53.0560","SITE":"AFETR","REV_AT_EPOCH":"2257","MEAN_ANOMALY":"288.4864","NORAD_CAT_ID":"48584","OBJECT_TYPE":"PAYLOAD","OBJECT_NAME":"STARLINK-2238","DECAY_DATE":null,"LAUNCH_DATE":"2021-05-15","ELEMENT_SET_NO":"999","GP_ID":"187017015","REF_FRAME":"TEME","TLE_LINE2":"2 48584  53.0560 163.7865 0002104  71.6354 288.4864 15.06399354 22570","CLASSIFICATION_TYPE":"U","PERIAPSIS":"545.758","COUNTRY_CODE":"US","SEMIMAJOR_AXIS":"6925.351","MEAN_MOTION":"15.06399354","APOAPSIS":"548.673","PERIOD":"95.592","RCS_SIZE":"LARGE","MEAN_MOTION_DDOT":"0.0000000000000","ECCENTRICITY":"0.00021040","FILE":"3159338"},{"REF_FRAME":"TEME","GP_ID":"186983904","PERIAPSIS":"546.090","TLE_LINE2":"2 48585  53.0554 166.1278 0001597  78.8588 281.2580 15.06405677 22495","CLASSIFICATION_TYPE":"U","COUNTRY_CODE":"US","OBJECT_NAME":"STARLINK-2240","LAUNCH_DATE":"2021-05-15","DECAY_DATE":null,"ELEMENT_SET_NO":"999","RCS_SIZE":"LARGE","PERIOD":"95.592","ECCENTRICITY":"0.00015970","MEAN_MOTION_DDOT":"0.0000000000000","FILE":"3158851","MEAN_MOTION":"15.06405677","SEMIMAJOR_AXIS":"6925.331","APOAPSIS":"548.302","ARG_OF_PERICENTER":"78.8588","CENTER_NAME":"EARTH","INCLINATION":"53.0554","OBJECT_ID":"2021-041AJ","RA_OF_ASC_NODE":"166.1278","MEAN_ELEMENT_THEORY":"SGP4","EPHEMERIS_TYPE":"0","TLE_LINE1":"1 48585U 21041AJ  21285.37085463  .00000904  00000-0  79581-4 0  9999","MEAN_MOTION_DOT":"0.00000904","BSTAR":"0.00007958100000","EPOCH":"2021-10-12T08:54:01.840032","TIME_SYSTEM":"UTC","NORAD_CAT_ID":"48585","OBJECT_TYPE":"PAYLOAD","SITE":"AFETR","MEAN_ANOMALY":"281.2580","REV_AT_EPOCH":"2249"},{"NORAD_CAT_ID":"48586","OBJECT_TYPE":"PAYLOAD","SITE":"AFETR","MEAN_ANOMALY":"292.6487","REV_AT_EPOCH":"2249","CENTER_NAME":"EARTH","INCLINATION":"53.0553","OBJECT_ID":"2021-041AK","ARG_OF_PERICENTER":"67.4691","EPOCH":"2021-10-12T08:43:26.008608","BSTAR":"0.00003698100000","TIME_SYSTEM":"UTC","RA_OF_ASC_NODE":"166.1603","MEAN_ELEMENT_THEORY":"SGP4","EPHEMERIS_TYPE":"0","MEAN_MOTION_DOT":"0.00000269","TLE_LINE1":"1 48586U 21041AK  21285.36349547  .00000269  00000-0  36981-4 0  9996","FILE":"3158851","RCS_SIZE":"LARGE","PERIOD":"95.592","ECCENTRICITY":"0.00017880","MEAN_MOTION_DDOT":"0.0000000000000","APOAPSIS":"548.461","MEAN_MOTION":"15.06396880","SEMIMAJOR_AXIS":"6925.358","COUNTRY_CODE":"US","REF_FRAME":"TEME","GP_ID":"186983262","CLASSIFICATION_TYPE":"U","TLE_LINE2":"2 48586  53.0553 166.1603 0001788  67.4691 292.6487 15.06396880 22495","PERIAPSIS":"545.985","ELEMENT_SET_NO":"999","OBJECT_NAME":"STARLINK-2241","LAUNCH_DATE":"2021-05-15","DECAY_DATE":null},{"BSTAR":"0.00005254400000","EPOCH":"2021-10-12T08:52:41.647008","TIME_SYSTEM":"UTC","RA_OF_ASC_NODE":"166.1225","MEAN_ELEMENT_THEORY":"SGP4","EPHEMERIS_TYPE":"0","TLE_LINE1":"1 48587U 21041AL  21285.36992647  .00000501  00000-0  52544-4 0  9994","MEAN_MOTION_DOT":"0.00000501","CENTER_NAME":"EARTH","INCLINATION":"53.0544","OBJECT_ID":"2021-041AL","ARG_OF_PERICENTER":"71.8211","SITE":"AFETR","MEAN_ANOMALY":"288.2994","REV_AT_EPOCH":"2249","NORAD_CAT_ID":"48587","OBJECT_TYPE":"PAYLOAD","ELEMENT_SET_NO":"999","OBJECT_NAME":"STARLINK-2242","LAUNCH_DATE":"2021-05-15","DECAY_DATE":null,"COUNTRY_CODE":"US","REF_FRAME":"TEME","GP_ID":"186983710","PERIAPSIS":"545.860","TLE_LINE2":"2 48587  53.0544 166.1225 0001985  71.8211 288.2994 15.06392983 22496","CLASSIFICATION_TYPE":"U","APOAPSIS":"548.610","SEMIMAJOR_AXIS":"6925.370","MEAN_MOTION":"15.06392983","FILE":"3158851","RCS_SIZE":"LARGE","PERIOD":"95.593","MEAN_MOTION_DDOT":"0.0000000000000","ECCENTRICITY":"0.00019850"},{"OBJECT_TYPE":"PAYLOAD","NORAD_CAT_ID":"48588","REV_AT_EPOCH":"2267","MEAN_ANOMALY":"292.7776","SITE":"AFETR","ARG_OF_PERICENTER":"67.3411","OBJECT_ID":"2021-041AM","INCLINATION":"53.0557","CENTER_NAME":"EARTH","MEAN_MOTION_DOT":"0.00002061","TLE_LINE1":"1 48588U 21041AM  21285.61137347  .00002061  00000-0  15716-3 0  9993","EPHEMERIS_TYPE":"0","MEAN_ELEMENT_THEORY":"SGP4","RA_OF_ASC_NODE":"155.0627","TIME_SYSTEM":"UTC","BSTAR":"0.00015716000000","EPOCH":"2021-10-12T14:40:22.667808","MEAN_MOTION_DDOT":"0.0000000000000","ECCENTRICITY":"0.00018690","PERIOD":"95.592","RCS_SIZE":"LARGE","FILE":"3159338","MEAN_MOTION":"15.06409304","SEMIMAJOR_AXIS":"6925.320","APOAPSIS":"548.479","TLE_LINE2":"2 48588  53.0557 155.0627 0001869  67.3411 292.7776 15.06409304 22671","PERIAPSIS":"545.891","CLASSIFICATION_TYPE":"U","GP_ID":"187016927","REF_FRAME":"TEME","COUNTRY_CODE":"US","DECAY_DATE":null,"LAUNCH_DATE":"2021-05-15","OBJECT_NAME":"STARLINK-2244","ELEMENT_SET_NO":"999"},{"COUNTRY_CODE":"US","GP_ID":"186983818","REF_FRAME":"TEME","CLASSIFICATION_TYPE":"U","TLE_LINE2":"2 48589  53.0541 156.2629 0002093  53.7594 306.3588 15.06403659 22637","PERIAPSIS":"545.753","ELEMENT_SET_NO":"999","OBJECT_NAME":"STARLINK-2245","LAUNCH_DATE":"2021-05-15","DECAY_DATE":null,"FILE":"3158851","RCS_SIZE":"LARGE","PERIOD":"95.592","MEAN_MOTION_DDOT":"0.0000000000000","ECCENTRICITY":"0.00020930","APOAPSIS":"548.652","SEMIMAJOR_AXIS":"6925.337","MEAN_MOTION":"15.06403659","CENTER_NAME":"EARTH","INCLINATION":"53.0541","OBJECT_ID":"2021-041AN","ARG_OF_PERICENTER":"53.7594","BSTAR":"0.00006113300000","EPOCH":"2021-10-12T08:12:53.893152","TIME_SYSTEM":"UTC","RA_OF_ASC_NODE":"156.2629","MEAN_ELEMENT_THEORY":"SGP4","EPHEMERIS_TYPE":"0","MEAN_MOTION_DOT":"0.00000629","TLE_LINE1":"1 48589U 21041AN  21285.34229043  .00000629  00000-0  61133-4 0  9992","NORAD_CAT_ID":"48589","OBJECT_TYPE":"PAYLOAD","SITE":"AFETR","REV_AT_EPOCH":"2263","MEAN_ANOMALY":"306.3588"},{"APOAPSIS":"548.538","MEAN_MOTION":"15.06392151","SEMIMAJOR_AXIS":"6925.373","FILE":"3158851","RCS_SIZE":"LARGE","PERIOD":"95.593","ECCENTRICITY":"0.00018770","MEAN_MOTION_DDOT":"0.0000000000000","ELEMENT_SET_NO":"999","OBJECT_NAME":"STARLINK-2246","LAUNCH_DATE":"2021-05-15","DECAY_DATE":null,"COUNTRY_CODE":"US","REF_FRAME":"TEME","GP_ID":"186983603","CLASSIFICATION_TYPE":"U","TLE_LINE2":"2 48590  53.0552 166.1418 0001877  68.3045 291.8144 15.06392151 22493","PERIAPSIS":"545.938","SITE":"AFETR","MEAN_ANOMALY":"291.8144","REV_AT_EPOCH":"2249","NORAD_CAT_ID":"48590","OBJECT_TYPE":"PAYLOAD","EPOCH":"2021-10-12T08:48:44.059968","BSTAR":"-0.00006136100000","TIME_SYSTEM":"UTC","RA_OF_ASC_NODE":"166.1418","MEAN_ELEMENT_THEORY":"SGP4","EPHEMERIS_TYPE":"0","MEAN_MOTION_DOT":"-0.00001195","TLE_LINE1":"1 48590U 21041AP  21285.36717662 -.00001195  00000-0 -61361-4 0  9999","CENTER_NAME":"EARTH","INCLINATION":"53.0552","OBJECT_ID":"2021-041AP","ARG_OF_PERICENTER":"68.3045"},{"SITE":"AFETR","MEAN_ANOMALY":"298.5595","REV_AT_EPOCH":"2353","NORAD_CAT_ID":"48591","OBJECT_TYPE":"PAYLOAD","MEAN_ELEMENT_THEORY":"SGP4","RA_OF_ASC_NODE":"156.2962","MEAN_MOTION_DOT":"0.00002539","TLE_LINE1":"1 48591U 21041AQ  21285.33493149  .00002539  00000-0  18934-3 0  9996","EPHEMERIS_TYPE":"0","BSTAR":"0.00018934000000","EPOCH":"2021-10-12T08:02:18.080736","TIME_SYSTEM":"UTC","ARG_OF_PERICENTER":"61.5609","CENTER_NAME":"EARTH","OBJECT_ID":"2021-041AQ","INCLINATION":"53.0550","MEAN_MOTION":"15.06396496","SEMIMAJOR_AXIS":"6925.359","APOAPSIS":"548.700","PERIOD":"95.592","RCS_SIZE":"LARGE","MEAN_MOTION_DDOT":"0.0000000000000","ECCENTRICITY":"0.00021310","FILE":"3158851","OBJECT_NAME":"STARLINK-2248","DECAY_DATE":null,"LAUNCH_DATE":"2021-05-15","ELEMENT_SET_NO":"999","GP_ID":"186983370","REF_FRAME":"TEME","PERIAPSIS":"545.749","TLE_LINE2":"2 48591  53.0550 156.2962 0002131  61.5609 298.5595 15.06396496 23537","CLASSIFICATION_TYPE":"U","COUNTRY_CODE":"US"},{"BSTAR":"0.00006913500000","EPOCH":"2021-10-12T09:36:29.147904","TIME_SYSTEM":"UTC","RA_OF_ASC_NODE":"165.9985","MEAN_ELEMENT_THEORY":"SGP4","EPHEMERIS_TYPE":"0","MEAN_MOTION_DOT":"0.00000748","TLE_LINE1":"1 48592U 21041AR  21285.40033736  .00000748  00000-0  69135-4 0  9997","CENTER_NAME":"EARTH","INCLINATION":"53.0558","OBJECT_ID":"2021-041AR","ARG_OF_PERICENTER":"71.3082","SITE":"AFETR","REV_AT_EPOCH":"2250","MEAN_ANOMALY":"288.8112","NORAD_CAT_ID":"48592","OBJECT_TYPE":"PAYLOAD","ELEMENT_SET_NO":"999","OBJECT_NAME":"STARLINK-2249","LAUNCH_DATE":"2021-05-15","DECAY_DATE":null,"COUNTRY_CODE":"US","REF_FRAME":"TEME","GP_ID":"186983496","TLE_LINE2":"2 48592  53.0558 165.9985 0001886  71.3082 288.8112 15.06407890 22502","PERIAPSIS":"545.883","CLASSIFICATION_TYPE":"U","APOAPSIS":"548.495","SEMIMAJOR_AXIS":"6925.324","MEAN_MOTION":"15.06407890","FILE":"3158851","RCS_SIZE":"MEDIUM","PERIOD":"95.592","MEAN_MOTION_DDOT":"0.0000000000000","ECCENTRICITY":"0.00018860"},{"ARG_OF_PERICENTER":"64.5424","INCLINATION":"53.0548","OBJECT_ID":"2021-041AS","CENTER_NAME":"EARTH","EPHEMERIS_TYPE":"0","TLE_LINE1":"1 48593U 21041AS  21285.40772581  .00000208  00000-0  32856-4 0  9997","MEAN_MOTION_DOT":"0.00000208","RA_OF_ASC_NODE":"165.9601","MEAN_ELEMENT_THEORY":"SGP4","TIME_SYSTEM":"UTC","BSTAR":"0.00003285600000","EPOCH":"2021-10-12T09:47:07.509984","OBJECT_TYPE":"PAYLOAD","NORAD_CAT_ID":"48593","REV_AT_EPOCH":"2250","MEAN_ANOMALY":"295.5773","SITE":"AFETR","TLE_LINE2":"2 48593  53.0548 165.9601 0002017  64.5424 295.5773 15.06395948 22506","CLASSIFICATION_TYPE":"U","PERIAPSIS":"545.829","REF_FRAME":"TEME","GP_ID":"186983905","COUNTRY_CODE":"US","LAUNCH_DATE":"2021-05-15","DECAY_DATE":null,"OBJECT_NAME":"STARLINK-2250","ELEMENT_SET_NO":"999","ECCENTRICITY":"0.00020170","MEAN_MOTION_DDOT":"0.0000000000000","RCS_SIZE":"LARGE","PERIOD":"95.592","FILE":"3158851","SEMIMAJOR_AXIS":"6925.361","MEAN_MOTION":"15.06395948","APOAPSIS":"548.623"}];
